C/2024 F2 (PANSTARRS),e,13.7449,138.9391,112.8674,9.945505,0.0314242,0.60114865,19.6749,04/16.0/2026,2000,g 11.0,4.0
# From MPEC 2026-E44
P/2024 FG9 (Nanshan-Hahn),e,1.7309,253.0366,245.9569,3.258162,0.1675888,0.51001927,116.5524,04/16.0/2026,2000,g 14.0,4.0
# From MPEC 2026-E44
C/2024 G1 (Wierzchos),e,95.3809,30.6037,128.2198,121.9454,0.0007319,0.96777213,0.3967,04/16.0/2026,2000,g 10.0,4.0
# From MPEC 2026-G41
C/2024 G2 (ATLAS),e,122.1197,171.3991,328.7562,695.8305,0.0000537,0.99231339,0.0000,06/13.6668/2025,2000,g  7.0,4.0
# From MPEC 2026-E44
C/2024 G3 (ATLAS),h,01/13.4236/2025,116.8431,220.4294,108.1762,1.000008,0.093676,2000,9.0,4.0
# From MPEC 2026-E44
C/2024 G4 (PANSTARRS),e,33.0289,152.9718,131.4089,3543,0.0000047,0.99861673,0.0000,03/21.4598/2026,2000,g  8.0,4.0
# From MPEC 2026-E44
C/2024 G5 (Leonard),e,50.3893,316.3833,209.6085,618.6490,0.0000641,0.99522568,0.0000,09/07.1677/2024,2000,g 13.0,4.0
# From MPEC 2026-G41
C/2024 G6 (ATLAS),h,02/20.5534/2026,120.4491,250.9496,23.4203,1.001570,6.430015,2000,5.5,4.0
# From MPEC 2026-FR0
C/2024 G7 (ATLAS),h,02/09.9246/2025,131.5069,191.9742,289.6494,1.001536,6.027337,2000,7.0,4.0
# From MPEC 2026-E44
P/2024 J1 (PANSTARRS),e,13.1635,321.9368,200.3803,3.809065,0.1325796,0.30780003,117.5300,04/16.0/2026,2000,g 14.5,4.0
# From MPC191588
C/2024 J2 (Wierzchos),e,79.3005,189.0644,143.1454,146.5718,0.0005554,0.98764346,0.0000,03/19.7425/2025,2000,g 11.5,4.0
# From MPEC 2026-G41
C/2024 J3 (ATLAS),h,11/25.4120/2026,75.6409,285.9611,74.0897,1.000206,3.865461,2000,5.0,4.0
# From MPEC 2026-G41
C/2024 J4 (Lemmon),e,117.5192,19.3134,127.8546,5006,0.0000028,0.99886237,0.0000,04/25.9190/2025,2000,g  8.0,4.0
# From MPEC 2026-E44
P/2024 K1 (PANSTARRS),e,1.8204,251.6011,349.3672,6.834198,0.0551662,0.49070075,39.8046,04/16.0/2026,2000,g 13.5,4.0
# From MPEC 2026-E44
C/2024 L1 (PANSTARRS),e,99.1533,45.1366,171.7769,11.46165,0.0254000,0.53340486,9.0942,04/16.0/2026,2000,g 10.0,4.0
# From MPEC 2026-E44
C/2024 L2 (PANSTARRS),h,06/16.9308/2025,139.5830,266.1805,345.8595,1.004976,8.326055,2000,7.5,3.2
# From MPEC 2026-E44
C/2024 L3 (PANSTARRS),h,11/23.5189/2023,111.5919,295.0047,59.0452,1.003470,6.857653,2000,9.5,4.0
# From MPEC 2026-FR0
C/2024 L5 (ATLAS),h,03/10.6359/2025,166.5764,139.1759,290.5714,1.037556,3.434105,2000,9.0,4.0
# From MPEC 2026-E44
C/2024 M1 (ATLAS),e,73.7090,76.2188,345.5976,29.76107,0.0060706,0.94274742,3.1084,04/16.0/2026,2000,g 12.0,4.0
# From MPEC 2026-E44
C/2024 N1 (PANSTARRS),h,10/18.9277/2025,88.7810,323.0263,91.2631,1.000951,4.398564,2000,10.5,4.0
# From MPEC 2026-FR0
C/2024 N3 (Sarneczky),h,04/11.5923/2025,88.7270,82.6124,86.8994,1.002132,5.014768,2000,8.0,4.0
# From MPEC 2026-FC3
C/2024 N4 (Sarneczky),h,01/10.4458/2025,49.7890,339.6467,116.7531,1.003633,5.399126,2000,7.5,4.0
# From MPEC 2026-E44
C/2024 O1 (PANSTARRS),e,59.0826,303.3472,349.8355,114785,0.0000000,0.99994247,0.0000,01/27.8866/2023,2000,g  8.5,4.0
# From MPEC 2026-E44
P/2024 O2 (PANSTARRS),e,28.9805,6.8101,310.7479,7.374959,0.0492113,0.49864023,35.7358,04/16.0/2026,2000,g 12.0,4.0
# From MPEC 2026-E44
C/2024 PN7 (PANSTARRS),e,101.2033,358.5841,74.2677,66.71388,0.0018088,0.97714633,0.0000,12/06.3764/2024,2000,g 15.2,4.0
# From MPEC 2026-E44
C/2024 Q3 (PANSTARRS),h,03/05.1842/2025,121.3794,337.2880,70.1324,1.001274,2.091919,2000,15.0,4.0
# From MPEC 2026-E44
C/2024 Q4 (PANSTARRS),e,3.3174,324.2638,133.0433,503.3113,0.0000873,0.98923111,0.0000,11/11.7187/2024,2000,g 10.0,4.0
# From MPEC 2026-E44
P/2024 R2 (PANSTARRS),e,15.1228,192.9680,203.7907,3.146537,0.1765854,0.26877754,99.1985,04/16.0/2026,2000,g 15.5,4.0
# From MPEC 2026-E44
P/2024 R3 (PANSTARRS),e,14.6981,32.9401,309.6973,3.202321,0.1719914,0.26855695,121.4742,04/16.0/2026,2000,g 15.0,4.0
# From MPEC 2026-G41
C/2024 R4 (PANSTARRS),h,10/26.7769/2027,95.3772,345.9446,109.0091,1.002325,4.408575,2000,6.5,4.0
# From MPEC 2026-E44
P/2024 S2 (Rankin),e,7.5251,8.3173,49.1915,5.011138,0.0878617,0.59149436,50.6753,04/16.0/2026,2000,g 15.0,4.0
# From MPEC 2026-E44
P/2024 T1 (Rankin),e,17.6201,279.7099,164.8802,6.598181,0.0581524,0.65327911,32.7196,04/16.0/2026,2000,g 14.5,4.0
# From MPEC 2026-E44
P/2024 T2 (Rankin),e,12.9289,113.0593,343.8519,6.172552,0.0642698,0.68035973,31.7281,04/16.0/2026,2000,g 16.0,4.0
# From MPEC 2026-E43
C/2024 T3 (PANSTARRS),e,53.4071,74.8046,336.9014,88.10227,0.0011919,0.95782052,0.4729,04/16.0/2026,2000,g 11.5,4.0
# From MPEC 2026-FR0
C/2024 T5 (ATLAS),h,05/06.2834/2027,52.3872,100.6781,352.4726,1.002182,3.839897,2000,5.5,4.0
# From MPEC 2026-E44
C/2024 U1 (PANSTARRS),e,128.7563,270.2679,188.1205,488.9062,0.0000912,0.99010491,0.0000,06/30.6594/2024,2000,g 10.0,4.0
# From MPEC 2026-E44
A/2024 U2,h,01/15.6070/2026,120.6712,56.0747,29.8455,1.003293,8.178990,2000,12.1,2.0
# From MPEC 2026-E44
C/2024 V1 (Borisov),e,54.6243,328.1908,168.6845,232.4169,0.0002782,0.99002279,0.0000,04/04.1308/2025,2000,g 14.8,4.0
# From MPEC 2026-E44
C/2024 W1 (PANSTARRS),e,83.2041,310.7244,256.7487,45.19798,0.0032436,0.94334098,1.2742,04/16.0/2026,2000,g 15.0,4.0
# From MPEC 2026-E44
A/2024 W2,h,02/27.4587/2025,116.6135,241.9393,168.0201,1.002153,3.721218,2000,15.6,2.0
# From MPEC 2026-FR0
C/2024 X1 (Fazekas),e,6.4728,351.9219,124.3582,9.398767,0.0342056,0.59394176,8.7582,04/16.0/2026,2000,g 11.3,4.0
# From MPEC 2026-FR0
C/2024 X2 (ATLAS),e,109.2777,122.5175,315.7619,53.04352,0.0025513,0.93072445,0.7194,04/16.0/2026,2000,g  9.6,4.0
# From MPC191589
P/2024 X3 (PANSTARRS),e,2.9723,113.3628,352.9856,6.996295,0.0532601,0.62618944,31.2717,04/16.0/2026,2000,g 14.6,4.0
# From MPEC 2026-E44
C/2024 X4 (PANSTARRS),e,34.6532,258.9442,153.3461,10.10534,0.0306816,0.64327345,6.9270,04/16.0/2026,2000,g 12.6,4.0
# From MPEC 2026-E44
C/2024 XK14 (Bok),e,109.2097,239.0935,243.4963,17.02376,0.0140320,0.87901328,4.6314,04/16.0/2026,2000,g 15.5,4.0
# From MPEC 2026-G41
C/2025 A1 (Lemmon),h,03/14.5079/2027,33.4117,101.3189,68.2795,1.000739,5.337260,2000,7.2,4.0
# From MPEC 2026-E44
P/2025 A2 (PANSTARRS),e,20.7339,189.3187,278.0731,5.083303,0.0859973,0.32187415,47.9247,04/16.0/2026,2000,g 13.2,4.0
# From MPEC 2026-G41
C/2025 A3 (Tsuchinshan),e,9.9760,322.4298,222.3540,10.20189,0.0302470,0.43224990,0.9516,04/16.0/2026,2000,g  9.0,4.0
# From MPEC 2026-E44
C/2025 A4 (PANSTARRS),e,32.0222,69.9164,102.8194,11.06838,0.0267656,0.65446239,12.2494,04/16.0/2026,2000,g 12.4,4.0
# From MPEC 2026-G41
C/2025 A6 (Lemmon),e,143.6630,108.0985,132.9617,122.6528,0.0007256,0.99567993,0.0000,11/08.5369/2025,2000,g 13.2,4.0
# From MPEC 2026-E44
A/2025 A7,e,133.6558,348.8633,195.5808,2726,0.0000069,0.99894216,0.0000,03/28.0657/2025,2000,g 14.9,2.0
# From MPEC 2026-E44
C/2025 B1 (PANSTARRS),e,39.6647,102.8456,23.5531,17730,0.0000004,0.99980091,0.0000,06/26.8094/2025,2000,g 12.0,4.0
# From MPEC 2026-E44
C/2025 B2 (Borisov),h,09/11.8994/2026,91.7454,84.8686,78.8681,1.002252,8.238820,2000,6.2,4.0
# From MPEC 2026-E44
P/2025 C1 (ATLAS),e,7.5166,9.0908,186.8243,4.197185,0.1146217,0.34575854,49.6709,04/16.0/2026,2000,g 10.8,4.0
# From MPEC 2026-G41
C/2025 D1 (Groeller),h,05/22.1315/2028,84.4501,312.9032,185.9493,1.003149,14.116319,2000,1.2,4.0
# From MPEC 2026-FC5
P/2025 D2 (PANSTARRS),e,5.3584,257.1825,317.8272,8.711587,0.0383317,0.14850324,319.3928,04/16.0/2026,2000,g  8.2,4.0
# From MPEC 2026-E44
P/2025 D3 (PANSTARRS),e,9.6422,186.6314,294.5634,3.968576,0.1246672,0.25247053,78.4028,04/16.0/2026,2000,g 14.7,4.0
# From MPEC 2026-E44
P/2025 D4 (ATLAS),e,15.9380,233.1152,332.8959,8.911887,0.0370467,0.63478205,15.7693,04/16.0/2026,2000,g 13.2,4.0
# From MPEC 2026-E44
C/2025 D6 (ATLAS),e,145.8243,151.5069,285.4755,1275,0.0000216,0.99803501,0.0000,12/11.4021/2024,2000,g 13.2,4.0
# From MPEC 2026-G41
C/2025 E1 (PANSTARRS),e,69.0597,344.5905,274.4229,1684,0.0000143,0.99762549,0.0000,09/23.7079/2026,2000,g  9.7,4.0
# From MPEC 2026-E44
C/2025 F2 (SWAN),h,05/01.1486/2025,90.3732,329.8241,153.8455,1.000143,0.333715,2000,11.2,4.0
# From MPEC 2026-G41
C/2025 J1 (Borisov),e,95.4394,273.9799,166.6196,1644,0.0000148,0.99782191,0.0000,06/11.7647/2026,2000,g  9.1,4.0
# From MPC191590
C/2025 K1 (ATLAS),h,10/08.4375/2025,147.8639,97.5573,271.0176,1.000238,0.334169,2000,12.2,4.0
# From MPC191590
C/2025 K1-B,h,10/08.4495/2025,147.9163,97.6393,271.3180,1.001971,0.335717,2000,14.7,4.0
# From MPC191590
C/2025 K1-C,e,147.8463,97.5292,270.9163,1413,0.0000186,0.99976394,0.0000,10/08.4362/2025,2000,g 14.0,4.0
# From MPEC 2026-E44
C/2025 K1-D,h,10/08.4562/2025,147.9553,97.7027,271.5410,1.003097,0.336883,2000,14.0,4.0
# From MPEC 2026-E44
C/2025 K2 (PANSTARRS),e,113.9794,113.8294,232.4620,25.28081,0.0077539,0.88672525,1.3391,04/16.0/2026,2000,g 13.7,4.0
# From MPEC 2026-FC3
C/2025 K3 (PANSTARRS),h,12/14.1630/2028,104.9364,350.6473,188.6132,1.001337,3.469260,2000,6.4,4.0
# From MPC191590
C/2025 K4 (Siverd),e,38.5444,297.0824,326.9220,43.35046,0.0034531,0.94159269,0.9039,04/16.0/2026,2000,g 14.1,4.0
# From MPEC 2026-FC3
C/2025 L1 (ATLAS),h,01/12.7364/2026,114.1358,208.1102,341.2518,1.001469,1.679683,2000,11.4,4.0
# From MPEC 2026-G41
C/2025 L2 (MAPS),e,86.5844,134.9868,232.6411,480.6481,0.0000935,0.99410449,0.0000,12/20.6565/2025,2000,g 11.7,4.0
# From MPEC 2026-E44
C/2025 M1 (PANSTARRS),e,64.8884,66.9576,230.3944,5267,0.0000026,0.99794358,0.0000,08/02.6643/2029,2000,g  2.9,4.0
# From MPEC 2026-G41
C/2025 M2 (PANSTARRS),h,11/23.4846/2027,173.2155,305.5338,96.7537,1.001938,2.720899,2000,13.4,4.0
# From MPEC 2026-E44
C/2025 M3 (PANSTARRS),h,07/05.0996/2026,137.4217,65.2655,195.3709,1.019208,6.532004,2000,9.0,4.0
# From MPC191591
C/2025 N2 (ATLAS),h,12/10.5992/2024,81.6646,94.4624,230.0049,1.001547,8.982708,2000,5.1,4.0
# From MPEC 2026-E44
C/2025 O2 (MAPS),e,134.5458,332.3114,280.2529,2790,0.0000067,0.99917954,0.0000,05/23.7421/2025,2000,g 14.3,4.0
# From MPEC 2026-FR1
A/2025 O4,e,144.2434,68.6461,151.9534,186.9774,0.0003855,0.98298857,0.0000,06/10.1163/2025,2000,g 15.4,2.0
# From MPEC 2026-E44
A/2025 P1,e,117.7974,342.4234,334.5230,56.77830,0.0023037,0.96168284,0.8788,04/16.0/2026,2000,g 17.1,4.0
# From MPC191591
